[{"OBJECT_NAME":"STARLINK-32353","OBJECT_ID":"2024-187P","EPOCH":"2026-01-27T22:14:43.868832","MEAN_MOTION":15.30209244,"ECCENTRICITY":0.00013187,"INCLINATION":53.1559,"RA_OF_ASC_NODE":254.2965,"ARG_OF_PERICENTER":82.1088,"MEAN_ANOMALY":278.0062,"EPHEMERIS_TYPE":0,"CLASSIFICATION_TYPE":"U","NORAD_CAT_ID":61587,"ELEMENT_SET_NO":999,"REV_AT_EPOCH":7278,"BSTAR":0.00098968364,"MEAN_MOTION_DOT":0.00029076,"MEAN_MOTION_DDOT":0},{"OBJECT_NAME":"STARLINK-32325","OBJECT_ID":"2024-187Q","EPOCH":"2026-01-27T14:51:48.936096","MEAN_MOTION":15.30191827,"ECCENTRICITY":0.0001193,"INCLINATION":53.1591,"RA_OF_ASC_NODE":255.9413,"ARG_OF_PERICENTER":101.821,"MEAN_ANOMALY":258.2925,"EPHEMERIS_TYPE":0,"CLASSIFICATION_TYPE":"U","NORAD_CAT_ID":61588,"ELEMENT_SET_NO":999,"REV_AT_EPOCH":7279,"BSTAR":3.7966e-5,"MEAN_MOTION_DOT":7.65e-6,"MEAN_MOTION_DDOT":0},{"OBJECT_NAME":"STARLINK-32416","OBJECT_ID":"2024-187R","EPOCH":"2026-01-27T16:31:44.604480","MEAN_MOTION":15.30197635,"ECCENTRICITY":0.00015157,"INCLINATION":53.1554,"RA_OF_ASC_NODE":240.0318,"ARG_OF_PERICENTER":94.8955,"MEAN_ANOMALY":265.2219,"EPHEMERIS_TYPE":0,"CLASSIFICATION_TYPE":"U","NORAD_CAT_ID":61589,"ELEMENT_SET_NO":999,"REV_AT_EPOCH":7302,"BSTAR":6.0572159e-5,"MEAN_MOTION_DOT":1.435e-5,"MEAN_MOTION_DDOT":0},{"OBJECT_NAME":"STARLINK-32413","OBJECT_ID":"2024-187S","EPOCH":"2026-01-26T15:45:18.601056","MEAN_MOTION":15.30214528,"ECCENTRICITY":0.0001187,"INCLINATION":53.1556,"RA_OF_ASC_NODE":260.5866,"ARG_OF_PERICENTER":81.8176,"MEAN_ANOMALY":278.2959,"EPHEMERIS_TYPE":0,"CLASSIFICATION_TYPE":"U","NORAD_CAT_ID":61590,"ELEMENT_SET_NO":999,"REV_AT_EPOCH":7264,"BSTAR":0.00014226,"MEAN_MOTION_DOT":3.858e-5,"MEAN_MOTION_DDOT":0},{"OBJECT_NAME":"STARLINK-32409","OBJECT_ID":"2024-187T","EPOCH":"2026-01-27T22:29:53.144160","MEAN_MOTION":15.30190643,"ECCENTRICITY":0.00011554,"INCLINATION":53.1629,"RA_OF_ASC_NODE":239.4498,"ARG_OF_PERICENTER":93.7385,"MEAN_ANOMALY":266.3748,"EPHEMERIS_TYPE":0,"CLASSIFICATION_TYPE":"U","NORAD_CAT_ID":61591,"ELEMENT_SET_NO":999,"REV_AT_EPOCH":7305,"BSTAR":-6.6433304e-5,"MEAN_MOTION_DOT":-2.325e-5,"MEAN_MOTION_DDOT":0},{"OBJECT_NAME":"STARLINK-32422","OBJECT_ID":"2024-187U","EPOCH":"2026-01-27T22:46:25.868064","MEAN_MOTION":15.30223775,"ECCENTRICITY":6.864e-5,"INCLINATION":53.1508,"RA_OF_ASC_NODE":238.8062,"ARG_OF_PERICENTER":103.6038,"MEAN_ANOMALY":256.5039,"EPHEMERIS_TYPE":0,"CLASSIFICATION_TYPE":"U","NORAD_CAT_ID":61592,"ELEMENT_SET_NO":999,"REV_AT_EPOCH":7306,"BSTAR":-0.0002189431,"MEAN_MOTION_DOT":-6.842e-5,"MEAN_MOTION_DDOT":0},{"OBJECT_NAME":"STARLINK-32397","OBJECT_ID":"2024-187V","EPOCH":"2026-01-27T08:42:25.969248","MEAN_MOTION":15.30207926,"ECCENTRICITY":6.517e-5,"INCLINATION":53.1583,"RA_OF_ASC_NODE":255.0448,"ARG_OF_PERICENTER":48.7954,"MEAN_ANOMALY":311.3102,"EPHEMERIS_TYPE":0,"CLASSIFICATION_TYPE":"U","NORAD_CAT_ID":61593,"ELEMENT_SET_NO":999,"REV_AT_EPOCH":7278,"BSTAR":0.0003778037,"MEAN_MOTION_DOT":0.0001085,"MEAN_MOTION_DDOT":0},{"OBJECT_NAME":"STARLINK-32302","OBJECT_ID":"2024-191A","EPOCH":"2026-01-27T23:33:22.225536","MEAN_MOTION":15.27576887,"ECCENTRICITY":9.451e-5,"INCLINATION":43.0047,"RA_OF_ASC_NODE":24.1426,"ARG_OF_PERICENTER":240.4157,"MEAN_ANOMALY":119.6601,"EPHEMERIS_TYPE":0,"CLASSIFICATION_TYPE":"U","NORAD_CAT_ID":61621,"ELEMENT_SET_NO":999,"REV_AT_EPOCH":7206,"BSTAR":1.923226e-6,"MEAN_MOTION_DOT":-2.09e-6,"MEAN_MOTION_DDOT":0},{"OBJECT_NAME":"STARLINK-32364","OBJECT_ID":"2024-191B","EPOCH":"2026-01-27T06:32:27.470688","MEAN_MOTION":15.27576039,"ECCENTRICITY":9.01e-5,"INCLINATION":43.0007,"RA_OF_ASC_NODE":28.2803,"ARG_OF_PERICENTER":256.2806,"MEAN_ANOMALY":103.7946,"EPHEMERIS_TYPE":0,"CLASSIFICATION_TYPE":"U","NORAD_CAT_ID":61622,"ELEMENT_SET_NO":999,"REV_AT_EPOCH":7120,"BSTAR":1.5647e-5,"MEAN_MOTION_DOT":1.69e-6,"MEAN_MOTION_DDOT":0},{"OBJECT_NAME":"STARLINK-32331","OBJECT_ID":"2024-191C","EPOCH":"2026-01-28T00:05:59.129376","MEAN_MOTION":15.27575773,"ECCENTRICITY":0.00016159,"INCLINATION":43.0027,"RA_OF_ASC_NODE":27.7769,"ARG_OF_PERICENTER":271.9106,"MEAN_ANOMALY":88.156,"EPHEMERIS_TYPE":0,"CLASSIFICATION_TYPE":"U","NORAD_CAT_ID":61623,"ELEMENT_SET_NO":999,"REV_AT_EPOCH":7127,"BSTAR":6.260282e-6,"MEAN_MOTION_DOT":-9.0e-7,"MEAN_MOTION_DDOT":0},{"OBJECT_NAME":"STARLINK-32398","OBJECT_ID":"2024-191D","EPOCH":"2026-01-28T00:04:49.473696","MEAN_MOTION":15.27580382,"ECCENTRICITY":5.578e-5,"INCLINATION":43.0034,"RA_OF_ASC_NODE":24.312,"ARG_OF_PERICENTER":244.4967,"MEAN_ANOMALY":115.5827,"EPHEMERIS_TYPE":0,"CLASSIFICATION_TYPE":"U","NORAD_CAT_ID":61624,"ELEMENT_SET_NO":999,"REV_AT_EPOCH":7131,"BSTAR":3.293384e-6,"MEAN_MOTION_DOT":-1.71e-6,"MEAN_MOTION_DDOT":0},{"OBJECT_NAME":"STARLINK-32365","OBJECT_ID":"2024-191E","EPOCH":"2026-01-27T00:04:43.773024","MEAN_MOTION":15.27577595,"ECCENTRICITY":0.00010352,"INCLINATION":43.004,"RA_OF_ASC_NODE":29.6992,"ARG_OF_PERICENTER":245.4555,"MEAN_ANOMALY":114.6189,"EPHEMERIS_TYPE":0,"CLASSIFICATION_TYPE":"U","NORAD_CAT_ID":61625,"ELEMENT_SET_NO":999,"REV_AT_EPOCH":7116,"BSTAR":3.1650176e-5,"MEAN_MOTION_DOT":6.09e-6,"MEAN_MOTION_DDOT":0},{"OBJECT_NAME":"STARLINK-32333","OBJECT_ID":"2024-191F","EPOCH":"2026-01-27T16:31:51.155328","MEAN_MOTION":15.27581887,"ECCENTRICITY":0.00015451,"INCLINATION":43.0033,"RA_OF_ASC_NODE":29.7135,"ARG_OF_PERICENTER":276.5893,"MEAN_ANOMALY":83.4783,"EPHEMERIS_TYPE":0,"CLASSIFICATION_TYPE":"U","NORAD_CAT_ID":61626,"ELEMENT_SET_NO":999,"REV_AT_EPOCH":7122,"BSTAR":0.00010621662,"MEAN_MOTION_DOT":2.662e-5,"MEAN_MOTION_DDOT":0},{"OBJECT_NAME":"STARLINK-32399","OBJECT_ID":"2024-191G","EPOCH":"2026-01-27T23:07:00.882624","MEAN_MOTION":15.2757559,"ECCENTRICITY":0.00012826,"INCLINATION":43.0035,"RA_OF_ASC_NODE":17.0751,"ARG_OF_PERICENTER":257.0646,"MEAN_ANOMALY":103.0062,"EPHEMERIS_TYPE":0,"CLASSIFICATION_TYPE":"U","NORAD_CAT_ID":61627,"ELEMENT_SET_NO":999,"REV_AT_EPOCH":7139,"BSTAR":7.6709601e-5,"MEAN_MOTION_DOT":1.849e-5,"MEAN_MOTION_DDOT":0},{"OBJECT_NAME":"STARLINK-32421","OBJECT_ID":"2024-191H","EPOCH":"2026-01-27T00:41:43.620576","MEAN_MOTION":15.27573755,"ECCENTRICITY":0.00014952,"INCLINATION":42.9969,"RA_OF_ASC_NODE":29.8916,"ARG_OF_PERICENTER":284.3552,"MEAN_ANOMALY":75.7134,"EPHEMERIS_TYPE":0,"CLASSIFICATION_TYPE":"U","NORAD_CAT_ID":61628,"ELEMENT_SET_NO":999,"REV_AT_EPOCH":7116,"BSTAR":1.198539e-6,"MEAN_MOTION_DOT":-2.29e-6,"MEAN_MOTION_DDOT":0},{"OBJECT_NAME":"STARLINK-32403","OBJECT_ID":"2024-191J","EPOCH":"2026-01-27T23:59:16.748160","MEAN_MOTION":15.27576182,"ECCENTRICITY":9.823e-5,"INCLINATION":43.0005,"RA_OF_ASC_NODE":24.2773,"ARG_OF_PERICENTER":267.0044,"MEAN_ANOMALY":93.0695,"EPHEMERIS_TYPE":0,"CLASSIFICATION_TYPE":"U","NORAD_CAT_ID":61629,"ELEMENT_SET_NO":999,"REV_AT_EPOCH":7131,"BSTAR":5.1755944e-5,"MEAN_MOTION_DOT":1.162e-5,"MEAN_MOTION_DDOT":0},{"OBJECT_NAME":"STARLINK-32390","OBJECT_ID":"2024-191K","EPOCH":"2026-01-27T00:52:49.857888","MEAN_MOTION":15.2757879,"ECCENTRICITY":8.946e-5,"INCLINATION":43.0037,"RA_OF_ASC_NODE":29.9512,"ARG_OF_PERICENTER":295.9033,"MEAN_ANOMALY":64.1726,"EPHEMERIS_TYPE":0,"CLASSIFICATION_TYPE":"U","NORAD_CAT_ID":61630,"ELEMENT_SET_NO":999,"REV_AT_EPOCH":7116,"BSTAR":-3.346061e-6,"MEAN_MOTION_DOT":-3.54e-6,"MEAN_MOTION_DDOT":0},{"OBJECT_NAME":"STARLINK-32348","OBJECT_ID":"2024-191L","EPOCH":"2026-01-27T06:55:49.020384","MEAN_MOTION":15.27577903,"ECCENTRICITY":0.0001393,"INCLINATION":43.0005,"RA_OF_ASC_NODE":31.8678,"ARG_OF_PERICENTER":274.047,"MEAN_ANOMALY":86.0223,"EPHEMERIS_TYPE":0,"CLASSIFICATION_TYPE":"U","NORAD_CAT_ID":61631,"ELEMENT_SET_NO":999,"REV_AT_EPOCH":7116,"BSTAR":2.9333e-5,"MEAN_MOTION_DOT":5.45e-6,"MEAN_MOTION_DDOT":0},{"OBJECT_NAME":"STARLINK-32455","OBJECT_ID":"2024-191M","EPOCH":"2026-01-27T16:42:55.435680","MEAN_MOTION":15.27630836,"ECCENTRICITY":0.00016955,"INCLINATION":43.0035,"RA_OF_ASC_NODE":29.7712,"ARG_OF_PERICENTER":277.6122,"MEAN_ANOMALY":82.4537,"EPHEMERIS_TYPE":0,"CLASSIFICATION_TYPE":"U","NORAD_CAT_ID":61632,"ELEMENT_SET_NO":999,"REV_AT_EPOCH":7122,"BSTAR":-0.00034595317,"MEAN_MOTION_DOT":-9.785e-5,"MEAN_MOTION_DDOT":0},{"OBJECT_NAME":"STARLINK-32396","OBJECT_ID":"2024-191N","EPOCH":"2026-01-27T07:01:21.841824","MEAN_MOTION":15.27588508,"ECCENTRICITY":8.45e-5,"INCLINATION":42.9999,"RA_OF_ASC_NODE":31.899,"ARG_OF_PERICENTER":281.6711,"MEAN_ANOMALY":78.4046,"EPHEMERIS_TYPE":0,"CLASSIFICATION_TYPE":"U","NORAD_CAT_ID":61633,"ELEMENT_SET_NO":999,"REV_AT_EPOCH":7116,"BSTAR":0.00026669,"MEAN_MOTION_DOT":7.086e-5,"MEAN_MOTION_DDOT":0},{"OBJECT_NAME":"STARLINK-32355","OBJECT_ID":"2024-191P","EPOCH":"2026-01-27T07:21:42.945984","MEAN_MOTION":15.27576432,"ECCENTRICITY":0.0001,"INCLINATION":43,"RA_OF_ASC_NODE":32.0037,"ARG_OF_PERICENTER":272.0254,"MEAN_ANOMALY":88.0483,"EPHEMERIS_TYPE":0,"CLASSIFICATION_TYPE":"U","NORAD_CAT_ID":61634,"ELEMENT_SET_NO":999,"REV_AT_EPOCH":7116,"BSTAR":0.00010877,"MEAN_MOTION_DOT":2.732e-5,"MEAN_MOTION_DDOT":0},{"OBJECT_NAME":"STARLINK-32370","OBJECT_ID":"2024-191Q","EPOCH":"2026-01-27T23:27:49.912128","MEAN_MOTION":15.27579564,"ECCENTRICITY":0.0008165,"INCLINATION":43.0022,"RA_OF_ASC_NODE":24.1109,"ARG_OF_PERICENTER":298.5839,"MEAN_ANOMALY":61.4191,"EPHEMERIS_TYPE":0,"CLASSIFICATION_TYPE":"U","NORAD_CAT_ID":61635,"ELEMENT_SET_NO":999,"REV_AT_EPOCH":7131,"BSTAR":4.3973661e-5,"MEAN_MOTION_DOT":9.46e-6,"MEAN_MOTION_DDOT":0},{"OBJECT_NAME":"STARLINK-32405","OBJECT_ID":"2024-191R","EPOCH":"2026-01-27T16:52:11.913024","MEAN_MOTION":15.27582954,"ECCENTRICITY":9.436e-5,"INCLINATION":43.0022,"RA_OF_ASC_NODE":29.8173,"ARG_OF_PERICENTER":289.9714,"MEAN_ANOMALY":70.1036,"EPHEMERIS_TYPE":0,"CLASSIFICATION_TYPE":"U","NORAD_CAT_ID":61636,"ELEMENT_SET_NO":999,"REV_AT_EPOCH":7122,"BSTAR":1.6530248e-5,"MEAN_MOTION_DOT":1.93e-6,"MEAN_MOTION_DDOT":0}]
